NORAD_CAT_ID,OBJECT_NAME,OBJECT_TYPE,EPOCH,MEAN_MOTION,ECCENTRICITY,INCLINATION,RA_OF_ASC_NODE,ARG_OF_PERICENTER,MEAN_ANOMALY,BSTAR,MEAN_MOTION_DOT,MEAN_MOTION_DDOT,TLE_LINE0,TLE_LINE1,TLE_LINE2,SEMIMAJOR_AXIS,PERIOD,APOGEE,PERIGEE,DECAYED
51738.0,STARLINK-3515,PAYLOAD,2023-07-31 12:03:45,15.08848834,0.0001174,53.217,273.6538,83.0522,277.0603,5.3345e-05,5.61e-06,0.0,0 STARLINK-3515,1 51738U 22016AA  23212.50261466  .00000561  00000-0  53345-4 0  9991,2 51738  53.2170 273.6538 0001174  83.0522 277.0603 15.08848834 80924,6917.853,95.437,540.531,538.906,0.0
51738.0,STARLINK-3515,PAYLOAD,2023-07-31 21:36:05,15.08837959,0.0001171,53.2166,271.8696,86.813,273.2996,0.00017507,2.499e-05,0.0,0 STARLINK-3515,1 51738U 22016AA  23212.90005802  .00002499  00000-0  17507-3 0  9996,2 51738  53.2166 271.8696 0001171  86.8130 273.2996 15.08837959 80982,6917.887,95.438,540.562,538.942,0.0
51738.0,STARLINK-3515,PAYLOAD,2023-08-01 10:19:09,15.08843537,0.0001251,53.2168,269.4912,82.3877,277.7257,6.2252e-05,7.03e-06,0.0,0 STARLINK-3515,1 51738U 22016AA  23213.42997596  .00000703  00000-0  62252-4 0  9998,2 51738  53.2168 269.4912 0001251  82.3877 277.7257 15.08843537 81064,6917.87,95.437,540.6,538.869,0.0
51738.0,STARLINK-3515,PAYLOAD,2023-08-02 10:09:57,15.08841167,0.0001258,53.217,265.0298,88.3835,271.7301,2.4392e-05,1e-06,0.0,0 STARLINK-3515,1 51738U 22016AA  23214.42357788  .00000100  00000-0  24392-4 0  9996,2 51738  53.2170 265.0298 0001258  88.3835 271.7301 15.08841167 81211,6917.877,95.437,540.612,538.872,0.0
51738.0,STARLINK-3515,PAYLOAD,2023-08-02 14:56:06,15.0884307,0.0001248,53.217,264.1377,88.3307,271.7828,3.2405e-05,2.28e-06,0.0,0 STARLINK-3515,1 51738U 22016AA  23214.62229616  .00000228  00000-0  32405-4 0  9991,2 51738  53.2170 264.1377 0001248  88.3307 271.7828 15.08843070 81244,6917.871,95.437,540.599,538.873,0.0
51738.0,STARLINK-3515,PAYLOAD,2023-08-03 10:00:43,15.08845748,0.000124,53.217,260.5699,88.5617,271.5518,7.6745e-05,9.34e-06,0.0,0 STARLINK-3515,1 51738U 22016AA  23215.41717283  .00000934  00000-0  76745-4 0  9990,2 51738  53.2170 260.5699 0001240  88.5617 271.5518 15.08845748 81360,6917.863,95.437,540.586,538.87,0.0
51738.0,STARLINK-3515,PAYLOAD,2023-08-03 14:46:52,15.0884911,0.0001232,53.217,259.6774,87.9153,272.198,9.7896e-05,1.271e-05,0.0,0 STARLINK-3515,1 51738U 22016AA  23215.61588933  .00001271  00000-0  97896-4 0  9995,2 51738  53.2170 259.6774 0001232  87.9153 272.1980 15.08849110 81392,6917.853,95.437,540.57,538.865,0.0
51738.0,STARLINK-3515,PAYLOAD,2023-08-04 03:29:59,15.08831604,0.000149,53.2171,257.2987,78.8719,281.2441,-1.149e-05,-4.71e-06,0.0,0 STARLINK-3515,1 51738U 22016AA  23216.14582652 -.00000471  00000-0 -11490-4 0  9995,2 51738  53.2171 257.2987 0001490  78.8719 281.2441 15.08831604 81477,6917.906,95.438,540.802,538.74,0.0
51738.0,STARLINK-3515,PAYLOAD,2023-08-04 09:51:31,15.08832305,0.0001229,53.2172,256.1088,90.2656,269.8477,-5.615e-07,-2.97e-06,0.0,0 STARLINK-3515,1 51738U 22016AA  23216.41078635 -.00000297  00000-0 -56150-6 0  9996,2 51738  53.2172 256.1088 0001229  90.2656 269.8477 15.08832305 81511,6917.904,95.438,540.619,538.919,0.0
51738.0,STARLINK-3515,PAYLOAD,2023-08-04 14:37:41,15.08834679,0.0001217,53.2172,255.2168,87.6007,272.5124,2.1124e-05,4.8e-07,0.0,0 STARLINK-3515,1 51738U 22016AA  23216.60950532  .00000048  00000-0  21124-4 0  9995,2 51738  53.2172 255.2168 0001217  87.6007 272.5124 15.08834679 81546,6917.897,95.438,540.604,538.92,0.0
51738.0,STARLINK-3515,PAYLOAD,2023-08-05 03:20:46,15.08834892,0.0001154,53.2163,252.8392,88.9044,271.208,4.9801e-05,5.05e-06,0.0,0 STARLINK-3515,1 51738U 22016AA  23217.13942669  .00000505  00000-0  49801-4 0  9996,2 51738  53.2163 252.8392 0001154  88.9044 271.2080 15.08834892 81626,6917.896,95.438,540.559,538.963,0.0
51738.0,STARLINK-3515,PAYLOAD,2023-08-05 09:42:18,15.08844502,0.0001263,53.2171,251.6475,99.7088,260.4047,7.3714e-05,8.86e-06,0.0,0 STARLINK-3515,1 51738U 22016AA  23217.40438082  .00000886  00000-0  73714-4 0  9997,2 51738  53.2171 251.6475 0001263  99.7088 260.4047 15.08844502 81669,6917.867,95.437,540.605,538.858,0.0
51738.0,STARLINK-3515,PAYLOAD,2023-08-06 01:36:09,15.08841587,0.0001203,53.2152,248.6757,98.7759,261.337,0.00024354,3.59e-05,0.0,0 STARLINK-3515,1 51738U 22016AA  23218.06678201  .00003590  00000-0  24354-3 0  9999,2 51738  53.2152 248.6757 0001203  98.7759 261.3370 15.08841587 81765,6917.876,95.437,540.573,538.908,0.0
51738.0,STARLINK-3515,PAYLOAD,2023-08-06 09:33:05,15.08843263,0.0001165,53.2153,247.1889,97.587,262.5254,0.00018612,2.676e-05,0.0,0 STARLINK-3515,1 51738U 22016AA  23218.39798134  .00002676  00000-0  18612-3 0  9997,2 51738  53.2153 247.1889 0001165  97.5870 262.5254 15.08843263 81817,6917.87,95.437,540.541,538.929,0.0
51738.0,STARLINK-3515,PAYLOAD,2023-08-06 19:05:24,15.08838432,0.0001349,53.2157,245.4059,73.6149,286.4992,7.364e-05,8.84e-06,0.0,0 STARLINK-3515,1 51738U 22016AA  23218.79542583  .00000884  00000-0  73640-4 0  9998,2 51738  53.2157 245.4059 0001349  73.6149 286.4992 15.08838432 81871,6917.885,95.438,540.683,538.817,0.0
51738.0,STARLINK-3515,PAYLOAD,2023-08-07 03:02:21,15.08826018,0.0001264,53.2158,243.9187,77.9511,282.1623,0.00025131,3.712e-05,0.0,0 STARLINK-3515,1 51738U 22016AA  23219.12663432  .00003712  00000-0  25131-3 0  9997,2 51738  53.2158 243.9187 0001264  77.9511 282.1623 15.08826018 81920,6917.923,95.438,540.663,538.914,0.0
51738.0,STARLINK-3515,PAYLOAD,2023-08-07 09:23:53,15.08838293,0.0001197,53.2161,242.7289,77.9259,282.1868,9.8289e-06,-1.31e-06,0.0,0 STARLINK-3515,1 51738U 22016AA  23219.39159070 -.00000131  00000-0  98289-5 0  9993,2 51738  53.2161 242.7289 0001197  77.9259 282.1868 15.08838293 81961,6917.886,95.438,540.579,538.923,0.0
51738.0,STARLINK-3515,PAYLOAD,2023-08-07 18:56:12,15.08840821,0.0001201,53.2161,240.9445,77.2801,282.8325,3.6547e-05,2.94e-06,0.0,0 STARLINK-3515,1 51738U 22016AA  23219.78902855  .00000294  00000-0  36547-4 0  9990,2 51738  53.2161 240.9445 0001201  77.2801 282.8325 15.08840821 82020,6917.878,95.438,540.574,538.912,0.0
51738.0,STARLINK-3515,PAYLOAD,2023-08-08 01:17:44,15.08842921,0.0001177,53.2158,239.7545,77.3734,282.7389,6.8389e-05,8.01e-06,0.0,0 STARLINK-3515,1 51738U 22016AA  23220.05398611  .00000801  00000-0  68389-4 0  9994,2 51738  53.2158 239.7545 0001177  77.3734 282.7389 15.08842921 82067,6917.871,95.437,540.551,538.922,0.0
51738.0,STARLINK-3515,PAYLOAD,2023-08-08 06:03:53,15.08845862,0.0001187,53.2158,238.8626,77.0515,283.061,9.4429e-05,1.216e-05,0.0,0 STARLINK-3515,1 51738U 22016AA  23220.25270369  .00001216  00000-0  94429-4 0  9990,2 51738  53.2158 238.8626 0001187  77.0515 283.0610 15.08845862 82093,6917.862,95.437,540.549,538.906,0.0
51738.0,STARLINK-3515,PAYLOAD,2023-08-08 07:39:16,15.08845782,0.000119,53.2158,238.5652,76.8202,283.2923,9.2163e-05,1.179e-05,0.0,0 STARLINK-3515,1 51738U 22016AA  23220.31894351  .00001179  00000-0  92163-4 0  9991,2 51738  53.2158 238.5652 0001190  76.8202 283.2923 15.08845782 82105,6917.863,95.437,540.551,538.904,0.0
51738.0,STARLINK-3515,PAYLOAD,2023-08-09 01:08:31,15.08838132,0.0001187,53.2159,235.2945,76.1353,283.9771,0.00013461,1.855e-05,0.0,0 STARLINK-3515,1 51738U 22016AA  23221.04758721  .00001855  00000-0  13461-3 0  9996,2 51738  53.2159 235.2945 0001187  76.1353 283.9771 15.08838132 82212,6917.886,95.438,540.572,538.93,0.0
51738.0,STARLINK-3515,PAYLOAD,2023-08-09 07:30:04,15.08840073,0.0001151,53.2159,234.1045,77.4338,282.6783,0.00011639,1.565e-05,0.0,0 STARLINK-3515,1 51738U 22016AA  23221.31254687  .00001565  00000-0  11639-3 0  9991,2 51738  53.2159 234.1045 0001151  77.4338 282.6783 15.08840073 82259,6917.88,95.438,540.541,538.949,0.0
51738.0,STARLINK-3515,PAYLOAD,2023-08-09 10:40:50,15.08842432,0.0001169,53.2159,233.5098,78.3617,281.7506,0.00013343,1.836e-05,0.0,0 STARLINK-3515,1 51738U 22016AA  23221.44502485  .00001836  00000-0  13343-3 0  9992,2 51738  53.2159 233.5098 0001169  78.3617 281.7506 15.08842432 82275,6917.873,95.437,540.547,538.929,0.0
51738.0,STARLINK-3515,PAYLOAD,2023-08-10 00:59:18,15.08841394,0.0001186,53.2153,230.8325,82.7035,277.4092,3.2664e-05,2.32e-06,0.0,0 STARLINK-3515,1 51738U 22016AA  23222.04118754  .00000232  00000-0  32664-4 0  9998,2 51738  53.2153 230.8325 0001186  82.7035 277.4092 15.08841394 82362,6917.876,95.437,540.562,538.921,0.0
51738.0,STARLINK-3515,PAYLOAD,2023-08-10 10:31:37,15.08842921,0.0001224,53.2155,229.0486,83.9245,276.1887,3.7214e-05,3.04e-06,0.0,0 STARLINK-3515,1 51738U 22016AA  23222.43862534  .00000304  00000-0  37214-4 0  9999,2 51738  53.2155 229.0486 0001224  83.9245 276.1887 15.08842921 82423,6917.871,95.437,540.583,538.89,0.0
51738.0,STARLINK-3515,PAYLOAD,2023-08-11 00:50:05,15.08838568,0.0001197,53.2151,226.3718,83.3092,276.8037,4.5325e-05,4.34e-06,0.0,0 STARLINK-3515,1 51738U 22016AA  23223.03478752  .00000434  00000-0  45325-4 0  9997,2 51738  53.2151 226.3718 0001197  83.3092 276.8037 15.08838568 82516,6917.885,95.438,540.578,538.922,0.0
51738.0,STARLINK-3515,PAYLOAD,2023-08-11 07:11:37,15.08842022,0.0001157,53.2149,225.1822,80.9919,279.1204,5.7909e-05,6.34e-06,0.0,0 STARLINK-3515,1 51738U 22016AA  23223.29974479  .00000634  00000-0  57909-4 0  9995,2 51738  53.2149 225.1822 0001157  80.9919 279.1204 15.08842022 82559,6917.874,95.437,540.54,538.939,0.0
51738.0,STARLINK-3515,PAYLOAD,2023-08-11 16:43:57,15.08828578,0.0001151,53.2144,223.3979,82.3353,277.7769,0.00018534,2.662e-05,0.0,0 STARLINK-3515,1 51738U 22016AA  23223.69719139  .00002662  00000-0  18534-3 0  9992,2 51738  53.2144 223.3979 0001151  82.3353 277.7769 15.08828578 82616,6917.915,95.438,540.577,538.984,0.0
51738.0,STARLINK-3515,PAYLOAD,2023-08-12 00:40:53,15.08834821,0.0001221,53.2147,221.9121,84.1836,275.9295,1.9981e-05,3e-07,0.0,0 STARLINK-3515,1 51738U 22016AA  23224.02839139  .00000030  00000-0  19981-4 0  9998,2 51738  53.2147 221.9121 0001221  84.1836 275.9295 15.08834821 82663,6917.896,95.438,540.606,538.917,0.0
